GAOFEN-13 01            
1 46610U 20071A   24357.88590983 -.00000345  00000+0  00000+0 0  9999
2 46610   0.1506  79.2666 0017453 121.9515 327.6447  1.00273708 15491
TIANTONG-1 2            
1 46916U 20082A   24358.05326399 -.00000336  00000+0  00000+0 0  9998
2 46916   1.8954 295.4558 0004242 351.5896 309.1568  1.00272656 15223
LUCAS (JDRS-1)          
1 47202U 20089A   24357.80468082 -.00000218  00000+0  00000+0 0  9991
2 47202   0.0350  78.9817 0003043 198.9183 194.3873  1.00274265 14999
SXM-7                   
1 47240U 20096A   24351.86536394 -.00000199  00000+0  00000+0 0  9991
2 47240   0.0213  86.1234 0004527  52.3429 173.8623  1.00272611  1968
CMS-01                  
1 47256U 20099A   24357.83224412 -.00000147  00000+0  00000+0 0  9992
2 47256   0.0807  95.9788 0008770 174.5516 203.9556  1.00271977 14771
TURKSAT 5A              
1 47306U 21001A   24358.03799486  .00000173  00000+0  00000+0 0  9991
2 47306   0.0263  75.1505 0000060 190.8237 230.6923  1.00271342 14563
TIANTONG-1 3            
1 47321U 21003A   24358.11607260 -.00000135  00000+0  00000+0 0  9996
2 47321   2.5118 316.1806 0006020 320.3418 298.9332  1.00270418 14543
TJS-6                   
1 47613U 21010A   24357.77801873  .00000060  00000+0  00000+0 0  9991
2 47613   0.0466 115.9568 0002923 144.7514 289.6887  1.00269843 14383
SBIRS GEO-5 (USA 315)   
1 48618U 21042A   24357.67526851  .00000132  00000+0  00000+0 0  9991
2 48618   5.8573 326.1453 0002598 305.6588  83.9142  1.00272555 13334
FENGYUN 4B              
1 48808U 21047A   24357.40601378 -.00000313  00000+0  00000+0 0  9998
2 48808   0.0199  13.9223 0010302  51.2671 276.9764  1.00271676 13136
SXM-8                   
1 48838U 21049A   24357.36839448 -.00000189  00000+0  00000+0 0  9990
2 48838   0.0255  51.0499 0003938 351.2848  96.5277  1.00276089 13167
TIANLIAN 1-05           
1 49011U 21063A   24357.97340861  .00000127  00000+0  00000+0 0  9994
2 49011   0.2029  71.6978 0005147 193.8453 193.6855  1.00272488 12640
STAR ONE D2             
1 49055U 21069A   24356.15644755 -.00000253  00000+0  00000+0 0  9997
2 49055   0.0174  16.5617 0002074 219.3044 200.5596  1.00270135 12480
EUTELSAT QUANTUM        
1 49056U 21069B   24357.82688126  .00000144  00000+0  00000+0 0  9991
2 49056   0.0137  12.6325 0002637 262.2231 162.3704  1.00272443 12494
ZHONGXING-2E            
1 49062U 21071A   24357.85188166 -.00000273  00000+0  00000+0 0  9997
2 49062   0.0034  15.8218 0001951 262.6475 218.1132  1.00268993 12619
TJS-7                   
1 49115U 21077A   24357.61676597 -.00000107  00000+0  00000+0 0  9992
2 49115   0.0443 270.2655 0002126 313.2971 350.6591  1.00272911  4137
CHINASAT 9B             
1 49125U 21080A   24358.13105229 -.00000294  00000+0  00000+0 0  9991
2 49125   0.0310  84.1270 0003194 165.9255 350.6977  1.00273520 12201
SHIJIAN-21 (SJ-21)      
1 49330U 21094A   24357.96022584 -.00000204  00000+0  00000+0 0  9997
2 49330  10.1664  43.8648 0076501  36.9632 146.3847  1.00266166 11834
SES-17                  
1 49332U 21095A   24357.80069455 -.00000254  00000+0  00000+0 0  9996
2 49332   0.0132  29.2162 0001065 243.6397  40.1288  1.00269940 12420
SYRACUSE 4A             
1 49333U 21095B   24357.17960296  .00000150  00000+0  00000+0 0  9994
2 49333   0.0181  20.3517 0001482 244.6035 296.4246  1.00272024 12522
QZS-1R                  
1 49336U 21096A   24357.57492273 -.00000268  00000+0  00000+0 0  9998
2 49336  36.3370  87.6833 0755234 271.4584  74.2064  1.00258655 11570
ZHONGXING-1D            
1 49505U 21114A   24356.11351642 -.00000326  00000+0  00000+0 0  9995
2 49505   0.0525 238.1090 0002818   7.7634  15.2268  1.00266079 11384
STPSAT-6                
1 49817U 21118A   24358.07776428 -.00000027  00000+0  00000+0 0  9993
2 49817   0.0279 280.4692 0002086  17.0946  70.8651  1.00271412 11156
LDPE-1                  
1 49818U 21118B   24358.20924750 -.00000246  00000+0  00000+0 0  9995
2 49818   2.8436  85.4626 0000368 265.3625 135.8995  0.99510837 11208
EXPRESS AMU-7           
1 50001U 21123A   24358.20188222 -.00000223  00000+0  00000+0 0  9998
2 50001   0.0170 322.3469 0000613 253.3298  94.2354  1.00270800 11105
EXPRESS AMU-3           
1 50002U 21123B   24357.46003164 -.00000304  00000+0  00000+0 0  9997
2 50002   0.0207 347.5469 0000287 230.9415 141.5095  1.00269955 11078
TIANLIAN 2-02           
1 50005U 21124A   24357.63355405  .00000003  00000+0  00000+0 0  9993
2 50005   0.1838 273.8570 0004434   2.9354 213.9381  1.00271878 11184
TURKSAT 5B              
1 50212U 21126A   24357.46509259  .00000162  00000+0  00000+0 0  9990
2 50212   0.0657 348.5927 0004785 313.6231 358.7403  1.00272152 10866
INMARSAT 6-F1           
1 50319U 21128A   24357.40184352 -.00000156  00000+0  00000+0 0  9991
2 50319   0.0157 311.3530 0000083  23.9328 344.5700  1.00271531 10821
SHIYAN 12 01 (SY-12 01) 
1 50321U 21129A   24357.95823859 -.00000330  00000+0  00000+0 0  9991
2 50321   2.2745  87.7899 0003198 246.0015 217.5929  1.00086648 11077
SHIYAN 12 02 (SY-12 02) 
1 50322U 21129B   24357.90049331  .00000169  00000+0  00000+0 0  9991
2 50322   2.2744  87.8084 0000681 201.9786 161.4151  1.00466705 11073
TJS-9                   
1 50574U 21135A   24357.76979457 -.00000281  00000+0  00000+0 0  9998
2 50574   0.0283 114.8498 0001654 129.7675 261.5724  1.00272681 11000
USA 324                 
1 51280U 22006A   24352.69503264 -.00000294  00000+0  00000+0 0  9991
2 51280   0.1793  84.6502 0002408 176.2116 210.2007  1.00408107  1926
USA 325                 
1 51281U 22006B   24352.94619841  .00000131  00000+0  00000+0 0  9998
2 51281   0.6171  86.6204 0001375 153.3882 211.4335  1.00158268  1928
GOES 18                 
1 51850U 22021A   24358.23035767  .00000116  00000+0  00000+0 0  9997
2 51850   0.0184 178.0973 0000493 147.2926  72.7894  1.00271641 10387
ZHONGXING-6D            
1 52255U 22038A   24357.39882868 -.00000338  00000+0  00000+0 0  9990
2 52255   0.0130  31.1964 0002697 240.0878  88.6849  1.00268036  9987
NILESAT 301             
1 52817U 22061A   24357.66970816 -.00000040  00000+0  00000+0 0  9991
2 52817   0.0483  24.6163 0004473 269.3377  31.8675  1.00273046  9302
CMS-02 (GSAT 24)        
1 52903U 22067A   24357.83224411 -.00000147  00000+0  00000+0 0  9993
2 52903   0.0634 267.4457 0004846 355.0543 211.9955  1.00273098  9186
MEASAT 3D               
1 52904U 22067B   24357.84632713 -.00000224  00000+0  00000+0 0  9999
2 52904   0.0252 357.0874 0003532 305.1000 185.8718  1.00270600  9224
SES-22                  
1 52933U 22071A   24358.23035767  .00000124  00000+0  00000+0 0  9994
2 52933   0.0339  75.7306 0002900 199.2727 121.1778  1.00273053  9147
WFOV (USA 332)          
1 52940U 22073A   24357.82758731 -.00000345  00000+0  00000+0 0  9997
2 52940   2.3147  85.6405 0001897 148.5589 274.8757  1.00274488  8947
TIANLIAN 2-03           
1 53100U 22078A   24357.71573889  .00000090  00000+0  00000+0 0  9994
2 53100   0.7420 279.1559 0002952   0.5353  80.2770  1.00273259  9121
SBIRS GEO-6 (USA 336)   
1 53355U 22092A   24358.21299383 -.00000273  00000+0  00000+0 0  9996
2 53355   4.2637 311.8514 0002436 320.5075  35.5676  1.00271627  8809
EUTELSAT KONNECT VHTS   
1 53765U 22110A   24357.21507713  .00000034  00000+0  00000+0 0  9994
2 53765   0.0527  94.7185 0003020 163.6959 272.9716  1.00276458  1402
ZHONGXING-1E            
1 53813U 22112A   24357.85257782 -.00000131  00000+0  00000+0 0  9997
2 53813   0.0372 157.9502 0004906 117.6059 204.6281  1.00273481  8424
SES-20                  
1 53960U 22123A   24354.93489645 -.00000093  00000+0  00000+0 0  9990
2 53960   0.0149  42.9849 0000852  67.8118 211.6779  1.00272293  8075
SES-21                  
1 53961U 22123B   24357.22341038  .00000085  00000+0  00000+0 0  9999
2 53961   0.0389  18.0643 0001011 249.0487 133.6603  1.00268897  1773
GALAXY 33 (G-33)        
1 54026U 22128A   24357.38104958  .00000095  00000+0  00000+0 0  9993
2 54026   0.0210  62.7555 0001851 207.8886 184.9512  1.00272380  8311
GALAXY 34 (G-34)        
1 54027U 22128B   24357.38104958  .00000075  00000+0  00000+0 0  9992
2 54027   0.0242  17.5555 0001514 256.4567 185.6510  1.00270628  8484
ANGOSAT 2               
1 54033U 22131A   24357.83243843  .00000154  00000+0  00000+0 0  9998
2 54033   0.0341 132.2147 0001162 149.3815 132.9454  1.00273095  8054
EUTELSAT HOTBIRD 13F    
1 54048U 22134A   24357.17757913  .00000102  00000+0  00000+0 0  9995
2 54048   0.0665 291.1699 0002262  68.6211 168.3487  1.00270849  7941
LDPE-2                  
1 54219U 22144A   24358.08575729 -.00000211  00000+0  00000+0 0  9992
2 54219   4.2689  64.7405 0000453 337.8540   8.9585  0.99900131  6362
EUTELSAT HOTBIRD 13G    
1 54225U 22146A   24357.03049813  .00000102  00000+0  00000+0 0  9993
2 54225   0.0560 246.4678 0001743 295.2794 293.3068  1.00271343  2038
ZHONGXING-19            
1 54230U 22148A   24357.63207708 -.00000062  00000+0  00000+0 0  9992
2 54230   0.0225 280.9014 0008844 331.0110 230.6728  1.00272401  7958
GALAXY 31 (G-31)        
1 54243U 22153A   24357.28976753  .00000029  00000+0  00000+0 0  9998
2 54243   0.0244  89.6631 0001529 187.2876 157.6948  1.00272192  1699
GALAXY 32 (G-32)        
1 54244U 22153B   24357.42549437 -.00000157  00000+0  00000+0 0  9993
2 54244   0.0092 341.6053 0002017 335.7857 196.2495  1.00271421  7711
EUTELSAT 10B            
1 54259U 22157A   24358.09146850  .00000087  00000+0  00000+0 0  9990
2 54259   0.0531  92.0106 0000430 104.8573 298.2037  1.00270282  7627
GALAXY 35 (G-35)        
1 54741U 22170A   24357.56716175 -.00000145  00000+0  00000+0 0  9991
2 54741   0.0245  84.1968 0002153 188.7917 289.6950  1.00272091  7460
GALAXY 36 (G-36)        
1 54742U 22170B   24357.79626365 -.00000167  00000+0  00000+0 0  9992
2 54742   0.0159  20.2883 0000735  37.7567 231.4399  1.00269550  7480
